[{"OBJECT_NAME":"STARLINK-1227","OBJECT_ID":"2020-012BE","EPOCH":"2026-03-09T04:25:44.093568","MEAN_MOTION":15.31040019,"ECCENTRICITY":0.00010621,"INCLINATION":53.1607,"RA_OF_ASC_NODE":1.2165,"ARG_OF_PERICENTER":82.0274,"MEAN_ANOMALY":278.0847,"EPHEMERIS_TYPE":0,"CLASSIFICATION_TYPE":"U","NORAD_CAT_ID":45230,"ELEMENT_SET_NO":999,"REV_AT_EPOCH":33545,"BSTAR":4.7655496e-5,"MEAN_MOTION_DOT":1.087e-5,"MEAN_MOTION_DDOT":0},{"OBJECT_NAME":"KUIPER-00209","OBJECT_ID":"2026-030N","EPOCH":"2026-03-09T14:49:43.575744","MEAN_MOTION":15.3016195,"ECCENTRICITY":0.0012191,"INCLINATION":51.8838,"RA_OF_ASC_NODE":220.0775,"ARG_OF_PERICENTER":59.1967,"MEAN_ANOMALY":301.0215,"EPHEMERIS_TYPE":0,"CLASSIFICATION_TYPE":"U","NORAD_CAT_ID":67776,"ELEMENT_SET_NO":999,"REV_AT_EPOCH":507,"BSTAR":0.0011963,"MEAN_MOTION_DOT":0.00035298,"MEAN_MOTION_DDOT":0}]
